BEIDOU-2 IGSO-1 (C06)   
1 36828U 10036A   26197.87751575 -.00000119  00000+0  00000+0 0  9997
2 36828  54.3069 162.6917 0058738 225.2841 329.6485  1.00263239 58391
BEIDOU-2 G4 (C04)       
1 37210U 10057A   26198.58469399 -.00000124  00000+0  00000+0 0  9991
2 37210   3.7207  68.7556 0005611 185.3515  51.7055  1.00272533 57594
BEIDOU-2 IGSO-2 (C07)   
1 37256U 10068A   26197.89053965 -.00000197  00000+0  00000+0 0  9994
2 37256  47.4927 271.4611 0056840 213.7793 238.3724  1.00272868 57099
BEIDOU-2 IGSO-3 (C08)   
1 37384U 11013A   26197.87729495 -.00000170  00000+0  00000+0 0  9994
2 37384  62.4493  39.8703 0035624 183.4987 133.5485  1.00260325 55957
BEIDOU-2 IGSO-4 (C09)   
1 37763U 11038A   26193.91136250 -.00000017  00000+0  00000+0 0  9994
2 37763  54.6038 165.4445 0160342 231.4539 316.2369  1.00279714 54905
BEIDOU-2 IGSO-5 (C10)   
1 37948U 11073A   26183.72937883 -.00000128  00000+0  00000+0 0  9990
2 37948  47.6496 271.3544 0114527 222.0502 141.5350  1.00270596 53296
BEIDOU-2 G5 (C05)       
1 38091U 12008A   26198.63599700  .00000047  00000+0  00000+0 0  9996
2 38091   3.6480  69.5036 0007306 268.7308 244.8265  1.00271027 52674
BEIDOU-2 M3 (C11)       
1 38250U 12018A   26197.18445535 -.00000076  00000+0  00000+0 0  9992
2 38250  55.7311 303.8980 0020973 272.2798  87.5098  1.86229676 96482
BEIDOU-2 M4 (C12)       
1 38251U 12018B   26197.65376425 -.00000078  00000+0  00000+0 0  9998
2 38251  55.6306 303.0936 0012145 272.2408  87.6521  1.86229271 96493
BEIDOU-2 M6 (C14)       
1 38775U 12050B   26196.82639704 -.00000044  00000+0  00000+0 0  9998
2 38775  56.5693  61.9476 0012890   1.6971 358.3817  1.86230913 93845
BEIDOU-2 G6 (C02)       
1 38953U 12059A   26198.64093703 -.00000187  00000+0  00000+0 0  9998
2 38953   4.4967  73.1916 0008736 327.2293 209.7710  1.00273311 50211
BEIDOU-3S IGSO-1S (C31) 
1 40549U 15019A   26183.80025122 -.00000190  00000+0  00000+0 0  9997
2 40549  49.1798 295.2769 0076860 219.1125 144.2493  1.00680073 41232
BEIDOU-3S M2S (C58)     
1 40748U 15037A   26197.31868204 -.00000074  00000+0  00000+0 0  9996
2 40748  54.8432 301.0434 0009457 256.6613 103.2681  1.86231871 74661
BEIDOU-3S M1S (C57)     
1 40749U 15037B   26196.98562833 -.00000072  00000+0  00000+0 0  9996
2 40749  54.8399 301.0417 0002740  63.1715 296.8904  1.86254817 74669
BEIDOU-3S IGSO-2S (C56) 
1 40938U 15053A   26198.64267037 -.00000104  00000+0  00000+0 0  9993
2 40938  49.1745 258.4175 0066282 193.2835 168.3012  1.00252524 39669
BEIDOU-2 IGSO-6 (C13)   
1 41434U 16021A   26177.11016981 -.00000145  00000+0  00000+0 0  9995
2 41434  60.2385  37.9495 0057558 231.0163 137.2672  1.00258926 37578
BEIDOU-2 G7 (C03)       
1 41586U 16037A   26198.59927344 -.00000363  00000+0  00000+0 0  9991
2 41586   1.7937  69.5208 0005902   0.1301 192.0559  1.00272216  7193
BEIDOU-3 M1 (C19)       
1 43001U 17069A   26196.05478514 -.00000040  00000+0  00000+0 0  9992
2 43001  56.7163  62.1672 0009267 328.5335  31.4861  1.86230827 59122
BEIDOU-3 M2 (C20)       
1 43002U 17069B   26195.99360895 -.00000040  00000+0  00000+0 0  9997
2 43002  56.7151  62.2055 0008281 358.4251   1.6473  1.86230602 59118
BEIDOU-3 M7 (C27)       
1 43107U 18003A   26196.27249963 -.00000070  00000+0  00000+0 0  9999
2 43107  54.3016 301.3358 0004346  99.7203 260.3603  1.86228000 57870
BEIDOU-3 M8 (C28)       
1 43108U 18003B   26197.29074103 -.00000075  00000+0  00000+0 0  9990
2 43108  54.2930 301.2814 0003089 256.6040 103.3959  1.86230859 57906
BEIDOU-3 M4 (C22)       
1 43207U 18018A   26195.04916456 -.00000038  00000+0  00000+0 0  9992
2 43207  56.6746  62.2635 0007449  28.5883 331.5267  1.86230761 57243
BEIDOU-3 M3 (C21)       
1 43208U 18018B   26198.33739211 -.00000055  00000+0  00000+0 0  9999
2 43208  56.6771  62.1587 0007654 347.0874  12.9638  1.86230868 57301
BEIDOU-3 M9 (C29)       
1 43245U 18029A   26196.40756696 -.00000067  00000+0  00000+0 0  9997
2 43245  54.1665 298.9609 0001237 187.3029 172.7315  1.86227874 56421
BEIDOU-3 M10 (C30)      
1 43246U 18029B   26197.95265421 -.00000077  00000+0  00000+0 0  9991
2 43246  54.1629 298.9337 0003239  37.5825 322.4793  1.86229048 56434
BEIDOU-2 IGSO-7 (C16)   
1 43539U 18057A   26197.82826650 -.00000084  00000+0  00000+0 0  9998
2 43539  55.1987 162.7987 0104914 237.9691 299.1450  1.00242392 29427
BEIDOU-3 M5 (C23)       
1 43581U 18062A   26197.10261403  .00000039  00000+0  00000+0 0  9990
2 43581  54.0864 181.3210 0005659 293.1569  66.7535  1.86228746 54179
BEIDOU-3 M6 (C24)       
1 43582U 18062B   26196.96621981  .00000039  00000+0  00000+0 0  9995
2 43582  54.0864 181.3149 0005364  10.9821 348.9999  1.86227848 54171
BEIDOU-3 M12 (C26)      
1 43602U 18067A   26195.83074670  .00000041  00000+0  00000+0 0  9998
2 43602  54.1815 180.1029 0007941  30.1280 329.8903  1.86227572 53638
BEIDOU-3 M11 (C25)      
1 43603U 18067B   26195.96588683  .00000041  00000+0  00000+0 0  9997
2 43603  54.1789 180.0620 0004640  13.0811 346.9028  1.86227031 53669
BEIDOU-3 M13 (C32)      
1 43622U 18072A   26194.84670723 -.00000039  00000+0  00000+0 0  9995
2 43622  56.6475  61.7808 0006235 333.7731  26.2691  1.86231187 53152
BEIDOU-3 M14 (C33)      
1 43623U 18072B   26196.85995828 -.00000045  00000+0  00000+0 0  9992
2 43623  56.6514  61.7086 0005557  10.9419 349.1444  1.86231129 53180
BEIDOU-3 M16 (C35)      
1 43647U 18078A   26197.01487644 -.00000071  00000+0  00000+0 0  9994
2 43647  54.0618 298.9748 0006597  39.6301 320.4557  1.86232227 52697
BEIDOU-3 M15 (C34)      
1 43648U 18078B   26197.68109017 -.00000075  00000+0  00000+0 0  9997
2 43648  54.0570 298.9515 0003486  57.6881 302.3845  1.86232352 52726
BEIDOU-3 G1 (C59)       
1 43683U 18085A   26198.58469399 -.00000120  00000+0  00000+0 0  9997
2 43683   2.9434  96.5465 0008017 356.8784 212.4352  1.00272429 28365
BEIDOU-3 M17 (C36)      
1 43706U 18093A   26196.23416436  .00000040  00000+0  00000+0 0  9996
2 43706  54.1700 181.3447 0010121 294.3653  66.9155  1.86228289 52065
BEIDOU-3 M18 (C37)      
1 43707U 18093B   26197.70663610  .00000042  00000+0  00000+0 0  9990
2 43707  54.1709 181.2870 0008157 323.7142  36.1996  1.86226527 52087
BEIDOU-3 IGSO-1 (C38)   
1 44204U 19023A   26197.32034861 -.00000209  00000+0  00000+0 0  9991
2 44204  58.7368  37.3490 0025911 224.0979 267.2124  1.00282972  7507
BEIDOU-2 G8 (C01)       
1 44231U 19027A   26198.65294719 -.00000257  00000+0  00000+0 0  9995
2 44231   1.7336  74.5036 0009662 282.1867 318.3597  1.00270931 26386
BEIDOU-3 IGSO-2 (C39)   
1 44337U 19035A   26198.29131494 -.00000132  00000+0  00000+0 0  9993
2 44337  55.2507 158.5979 0039300 216.4251 143.3539  1.00256869 25975
BEIDOU-3 M24 (C46)      
1 44542U 19061A   26197.23792348  .00000040  00000+0  00000+0 0  9991
2 44542  54.3974 181.7481 0008646 359.7082   0.2616  1.86229127 46330
BEIDOU-3 M23 (C45)      
1 44543U 19061B   26197.36472383  .00000041  00000+0  00000+0 0  9991
2 44543  54.3958 181.7121 0005956 340.9242  15.4707  1.86227496 46331
BEIDOU-3 M22 (C44)      
1 44793U 19078A   26194.39343167 -.00000062  00000+0  00000+0 0  9997
2 44793  53.9106 298.9058 0005750  50.3045 309.7753  1.86227300 45134
BEIDOU-3 M21 (C43)      
1 44794U 19078B   26197.75506272 -.00000075  00000+0  00000+0 0  9993
2 44794  53.8801 298.7476 0003510  49.6738 310.3961  1.86227738 45202
BEIDOU-3 M19 (C41)      
1 44864U 19090A   26196.14526441 -.00000041  00000+0  00000+0 0  9990
2 44864  56.5835  61.8670 0016849 297.6358 260.7026  1.86231024 44756
BEIDOU-3 M20 (C42)      
1 44865U 19090B   26195.48425657 -.00000039  00000+0  00000+0 0  9991
2 44865  56.5842  61.9230 0014404 312.7642 251.9859  1.86231156 44727
BEIDOU-3 G2 (C60)       
1 45344U 20017A   26198.65980323 -.00000150  00000+0  00000+0 0  9997
2 45344   2.9248  47.8431 0001914  58.6715 146.5033  1.00272721 23561
BEIDOU-3 G3 (C61)       
1 45807U 20040A   26198.59927350 -.00000364  00000+0  00000+0 0  9998
2 45807   2.5204  67.4888 0002210 308.4037 245.7579  1.00275300 22371
BEIDOU-3 G4 (C62)       
1 56564U 23066A   26198.65208052 -.00000290  00000+0  00000+0 0  9997
2 56564   0.4585 339.6546 0004967 185.6242 145.0043  1.00271839 11695
BEIDOU-3 M28 (C50)      
1 58654U 23207A   26198.36896810 -.00000058  00000+0  00000+0 0  9991
2 58654  55.7796  61.2849 0002355   6.6931 353.3796  1.86229711 17404
BEIDOU-3 M26 (C48)      
1 58655U 23207B   26194.94472015 -.00000041  00000+0  00000+0 0  9991
2 58655  55.7789  61.3870 0002016 324.6613  35.3983  1.86229657 17321
BEIDOU-3 M25 (C47)      
1 61186U 24168B   26197.98586485 -.00000080  00000+0  00000+0 0  9998
2 61186  54.4447 301.2059 0003354 291.9069  64.5321  1.86229972 12339
BEIDOU-3 M27 (C49)      
1 61187U 24168C   26197.88159973 -.00000079  00000+0  00000+0 0  9994
2 61187  54.4402 301.1922 0000892  46.1896  15.3797  1.86230020  9817
